HIMAWARI-8              
1 40267U 14060A   24283.85925719 -.00000269  00000+0  00000+0 0  9991
2 40267   0.0221 166.2067 0000587  54.5913 248.1923  1.00273298 36595
